{
    "links": {
        "self": "http://www.neowsapp.com/rest/v1/neo/3968767?api_key=iIulBulltgU6a56xZRHN4H3l9WmuAYTsLGpBGhQ2"
    },
    "id": "3968767",
    "neo_reference_id": "3968767",
    "name": "(2019 YV5)",
    "designation": "2019 YV5",
    "nasa_jpl_url": "http://ssd.jpl.nasa.gov/sbdb.cgi?sstr=3968767",
    "absolute_magnitude_h": 24.4,
    "estimated_diameter": {
        "kilometers": {
            "estimated_diameter_min": 0.0350392641,
            "estimated_diameter_max": 0.0783501764
        },
        "meters": {
            "estimated_diameter_min": 35.0392641108,
            "estimated_diameter_max": 78.3501764334
        },
        "miles": {
            "estimated_diameter_min": 0.0217723826,
            "estimated_diameter_max": 0.0486845275
        },
        "feet": {
            "estimated_diameter_min": 114.9582192654,
            "estimated_diameter_max": 257.0543928497
        }
    },
    "is_potentially_hazardous_asteroid": false,
    "close_approach_data": [
        {
            "close_approach_date": "1915-01-19",
            "close_approach_date_full": "1915-Jan-19 21:38",
            "epoch_date_close_approach": -1734056520000,
            "relative_velocity": {
                "kilometers_per_second": "6.2874550468",
                "kilometers_per_hour": "22634.8381686228",
                "miles_per_hour": "14064.4081942757"
            },
            "miss_distance": {
                "astronomical": "1.2624066455",
                "lunar": "491.0761850995",
                "kilometers": "188853345.240645085",
                "miles": "117348027.232208773"
            },
            "orbiting_body": "Juptr"
        },
        {
            "close_approach_date": "2020-01-11",
            "close_approach_date_full": "2020-Jan-11 13:37",
            "epoch_date_close_approach": 1578749820000,
            "relative_velocity": {
                "kilometers_per_second": "13.9380966426",
                "kilometers_per_hour": "50177.1479134871",
                "miles_per_hour": "31178.1283799109"
            },
            "miss_distance": {
                "astronomical": "0.0430279358",
                "lunar": "16.7378670262",
                "kilometers": "6436887.546176746",
                "miles": "3999696.4528052548"
            },
            "orbiting_body": "Earth"
        },
        {
            "close_approach_date": "2021-12-14",
            "close_approach_date_full": "2021-Dec-14 10:26",
            "epoch_date_close_approach": 1639477560000,
            "relative_velocity": {
                "kilometers_per_second": "5.4903784974",
                "kilometers_per_hour": "19765.3625905889",
                "miles_per_hour": "12281.4276608023"
            },
            "miss_distance": {
                "astronomical": "0.9877396639",
                "lunar": "384.2307292571",
                "kilometers": "147763749.833955893",
                "miles": "91816136.5759936034"
            },
            "orbiting_body": "Juptr"
        }
    ],
    "orbital_data": {
        "orbit_id": "2",
        "orbit_determination_date": "2020-01-03 05:37:18",
        "first_observation_date": "2019-12-31",
        "last_observation_date": "2020-01-03",
        "data_arc_in_days": 3,
        "observations_used": 28,
        "orbit_uncertainty": "8",
        "minimum_orbit_intersection": ".0413687",
        "jupiter_tisserand_invariant": "3.137",
        "epoch_osculation": "2458849.5",
        "eccentricity": ".6531669821518559",
        "semi_major_axis": "2.479948388410989",
        "inclination": "6.47521745715863",
        "ascending_node_longitude": "312.6701543686685",
        "orbital_period": "1426.469173155513",
        "perihelion_distance": ".8601279836602246",
        "perihelion_argument": "203.7031117677759",
        "aphelion_distance": "4.099768793161752",
        "perihelion_time": "2458891.190996928107",
        "mean_anomaly": "349.4783853892072",
        "mean_motion": ".2523713843767397",
        "equinox": "J2000",
        "orbit_class": {
            "orbit_class_type": "APO",
            "orbit_class_description": "Near-Earth asteroid orbits which cross the Earth’s orbit similar to that of 1862 Apollo",
            "orbit_class_range": "a (semi-major axis) > 1.0 AU; q (perihelion) < 1.017 AU"
        }
    },
    "is_sentry_object": false
}